[Satellite]
VERSION=1.1
NAME=ATLANTIC BIRD 3
NICKNAME=ATLANTIC BIRD 3
TLE1=1 27460U 02035A   15055.20465001 -.00000069  00000-0  10000-3 0  9993
TLE2=2 27460   0.0423 325.9651 0005228 354.5451 261.8652  1.00272198 46320
